#aV2021  7  6  0  0  0.00000000     288 DD+AD WGS84 FIT  NGA
## 2165 172800.00000000   300.00000000 59401 0.0000000000000
+   32     1  2  3  4  5  6  7  8  9 10 11 12 13 14 15 16 17
+         18 19 20 21 22 23 24 25 26 27 28 29 30 31 32  0  0
+          0  0  0  0  0  0  0  0  0  0  0  0  0  0  0  0  0
+          0  0  0  0  0  0  0  0  0  0  0  0  0  0  0  0  0
+          0  0  0  0  0  0  0  0  0  0  0  0  0  0  0  0  0
++         2  2  2  2  2  2  2  2  2  2  2  2  2  2  2  2  2
++         2  2  2  2  2  2  2  2  2  2  2  2  2  2  2  0  0
++         0  0  0  0  0  0  0  0  0  0  0  0  0  0  0  0  0
++         0  0  0  0  0  0  0  0  0  0  0  0  0  0  0  0  0
++         0  0  0  0  0  0  0  0  0  0  0  0  0  0  0  0  0
%c cc cc ccc ccc cccc cccc cccc cccc ccccc ccccc ccccc ccccc
%c cc cc ccc ccc cccc cccc cccc cccc ccccc ccccc ccccc ccccc
%f  0.0000000  0.000000000  0.00000000000  0.000000000000000
%f  0.0000000  0.000000000  0.00000000000  0.000000000000000
%i    0    0    0    0      0      0      0      0         0
%i    0    0    0    0      0      0      0      0         0
/*      NGA, ST. LOUIS,MO.                                  
/*   EPHEMERIS COMPUTED FROM 1 DAYS OF DATA                 
/*   EPOCHA v6 SMOOTHER                                     
/*   G2139 IERS2010 SATIGS SATAPC                           
*  2021  7  6 10 30  0.00000000
P  1  10679.511432 -20364.213474 -13252.125671    636.657086                    
V  1  13813.914528  -9163.375851  26068.144573     -0.116282                    
P  2 -21378.441002  13039.360313  -8288.050618   -617.625735                    
V  2   6258.979499  -9894.801147 -29354.224887     -0.027295                    
P  3   3070.008218 -14837.339984 -21910.203776   -212.397871                    
V  3  26019.939165   9106.442198  -2420.877151     -0.112541                    
P  4   1643.523843 -25336.880722  -7683.374546   -201.748626                    
V  4   4126.431189   9276.268893 -29732.064393     -0.008914                    
P  5 -16464.337168   8732.281432  18835.037984    -47.078709                    
V  5 -22669.074922  -8579.173605 -15528.011540     -0.011551                    
P  6 -20129.890143   2104.361641 -17176.050446     36.223882                    
V  6  15822.684286 -15108.650134 -20273.757250      0.052659                    
P  7  -3832.522842 -16251.523881  20914.433538    195.833305                    
V  7  20518.548371 -15811.086949  -9171.369109      0.091285                    
P  8   7735.380886 -19147.117438  16514.366226    -27.760979                    
V  8   6070.308813  20299.955566  20974.072395     -0.014313                    
P  9  -7349.158097 -25318.893842   3067.417197   -354.353784                    
V  9   2208.648688  -4501.911858 -31279.744178     -0.015972                    
P 10  23372.803221  11929.551531   5079.857104   -156.526480                    
V 10  -6629.299106     13.936722  30919.647260     -0.075998                    
P 11 -23109.887280   9817.237975  -8675.615319      8.365657                    
V 11   7203.861326  -8710.783033 -29099.659777      0.110249                    
P 12  -4938.959464  14258.145123 -22113.951784    -64.799840                    
V 12 -25140.817679 -10966.737426  -1341.064152     -0.052714                    
P 13 -13095.459072  11544.886456  19840.576767    154.091431                    
V 13  -2457.772094 -25418.471143  13217.115798      0.050018                    
P 14 -22877.500853 -12743.823509   4566.573104     53.874899                    
V 14   6445.716637   -456.608041  30933.683988     -0.088778                    
P 15  -5911.802836  20248.243534  15559.545691   -137.460376                    
V 15  -8881.736672 -18883.710073  21059.217551      0.026479                    
P 16  21319.412404  -1983.858139  15759.932838   -352.659742                    
V 16  17784.702124   9803.286326 -22031.719663     -0.061288                    
P 17 -12519.070858 -17204.137831 -15466.860102    469.510461                    
V 17   -831.480346 -20431.261792  22778.314478      0.058862                    
P 18   5878.854394  14328.649854  21554.819091    342.788150                    
V 18 -21524.563879  16940.253297  -5460.099911     -0.024136                    
P 19 -14671.858708  -8191.180504 -20886.492345     22.693403                    
V 19  -1338.615410 -25759.345636  11062.072485      0.049830                    
P 20 -22490.581894   5141.431326  12838.606255    520.462059                    
V 20 -15626.043635  -6173.567774 -25151.669835     -0.003797                    
P 21  16104.418663 -20169.772727  -4279.071349    129.556479                    
V 21   6930.511259  -2081.720788  31382.645289      0.023577                    
P 22  11966.336866 -12276.257266 -20057.582584   -570.539496                    
V 22  24948.170440   7495.331116  10403.796467      0.095597                    
P 23  15452.442550  15791.019941  14760.342217     88.271704                    
V 23 -18430.491111  -3960.466321  23439.891704     -0.049282                    
P 24 -13175.755789  21409.799738  -8169.978562    163.323005                    
V 24  -9822.816314   4546.578660  29029.028245      0.153364                    
P 25   8189.077055  17005.331677 -19054.381214    168.611804                    
V 25 -22610.369073  -6707.032383 -15661.510306      0.067406                    
P 26  25775.421064   3184.179389   6149.391278    107.215034                    
V 26   6609.813459   5220.278229 -29851.348063      0.046388                    
P 27  13042.490198  -8593.097411  21244.189324   -158.554719                    
V 27   5713.142665  26831.118013   7637.742939     -0.060081                    
P 28 -24200.482186 -10594.721780   -868.499720    542.606246                    
V 28   -497.789061  -3126.400875  32118.859283     -0.065334                    
P 29   4233.715230  26104.905052   2045.500719   -375.739932                    
V 29  -1833.506174   2874.015538 -32151.407011     -0.061246                    
P 30 -15269.885076  -7161.551739  20631.606420   -447.540644                    
V 30  19724.741865 -17095.132056   8455.028228     -0.045010                    
P 31  21576.088706  -3354.550118 -15521.510986   -127.091423                    
V 31 -13950.714972  13574.399959 -21991.960192     -0.021399                    
P 32  14884.246689  13884.211716 -17037.729609     15.469520                    
V 32   2390.984229  21740.811245  19502.046321     -0.018593                    
EOF
